HULIANWANG DIGUI-153    
1 67529U 26013H   26043.26406470 -.00000125  00000+0  16334-4 0  9994
2 67529  50.0072  89.4374 0001301 322.0954  37.9849 13.79514550  3339
HULIANWANG DIGUI-154    
1 67530U 26013J   26043.33376307  .00000033  00000+0  16974-3 0  9995
2 67530  50.0011  89.1466 0004223 185.3162 174.7688 13.79360636  3346
CZ-12 R/B               
1 67531U 26013K   26044.30903653 -.00000106  00000+0  24917-4 0  9993
2 67531  49.9940  81.6091 0069052 213.8608 145.7882 14.14458025  3534
STARLINK-36587          
1 67532U 26014A   26046.20397649  .00369165  00000+0  18378-2 0  9992
2 67532  97.2831 290.0273 0001906 125.3375 234.8071 15.80933000  5032
STARLINK-36417          
1 67533U 26014B   26046.17427613  .00129578  00000+0  85592-3 0  9999
2 67533  97.2845 289.9136 0001499  57.6694 302.4716 15.75205655  5020
STARLINK-36576          
1 67534U 26014C   26046.58335648 -.01780772  00000+0 -12377-1 0  9992
2 67534  97.2840 290.4321 0001617  91.2107 269.1938 15.77277067  5139
STARLINK-36574          
1 67535U 26014D   26046.20130068  .00343636  00000+0  17149-2 0  9995
2 67535  97.2834 290.0315 0000715 138.3448 221.7875 15.80943532  5035
STARLINK-36572          
1 67536U 26014E   26046.22404189  .00192010  00000+0  12572-2 0  9999
2 67536  97.2845 289.9990 0002422  58.6362 301.5140 15.75230327  5037
STARLINK-36561          
1 67537U 26014F   26046.23002227  .00123187  00000+0  81411-3 0  9996
2 67537  97.2850 289.9891 0001591  97.8309 262.3136 15.75212378  5031
STARLINK-36397          
1 67538U 26014G   26046.17039401  .00225016  00000+0  14666-2 0  9995
2 67538  97.2849 289.9176 0001659 103.7372 256.4078 15.75243964  5021
STARLINK-36573          
1 67539U 26014H   26046.19720197  .00216119  00000+0  10982-2 0  9998
2 67539  97.2835 290.0352 0001431 100.6520 259.4910 15.80877827  5031
STARLINK-36585          
1 67540U 26014J   26046.60695711  .00427685  00000+0  27031-2 0  9994
2 67540  97.2851 290.3931 0002326 121.7225 238.4267 15.75395385  5093
