CCSDS_OMM_VERS = 2.0
CREATION_DATE  = 
ORIGINATOR     = 

OBJECT_NAME    = HULIANWANG DIGUI-153
OBJECT_ID      = 2026-013H
CENTER_NAME    = EARTH
REF_FRAME      = TEME
TIME_SYSTEM    = UTC
MEAN_ELEMENT_THEORY = SGP/SGP4

EPOCH          = 2026-02-12T06:20:15.190080
MEAN_MOTION    = 13.79514550
ECCENTRICITY   = .0001301
INCLINATION    = 50.0072
RA_OF_ASC_NODE = 89.4374
ARG_OF_PERICENTER = 322.0954
MEAN_ANOMALY   = 37.9849

EPHEMERIS_TYPE = 0
CLASSIFICATION_TYPE = U
NORAD_CAT_ID   = 67529
ELEMENT_SET_NO = 999
REV_AT_EPOCH   = 333
BSTAR          = .16333987E-4
MEAN_MOTION_DOT = -.125E-5
MEAN_MOTION_DDOT = 0

CCSDS_OMM_VERS = 2.0
CREATION_DATE  = 
ORIGINATOR     = 

OBJECT_NAME    = HULIANWANG DIGUI-154
OBJECT_ID      = 2026-013J
CENTER_NAME    = EARTH
REF_FRAME      = TEME
TIME_SYSTEM    = UTC
MEAN_ELEMENT_THEORY = SGP/SGP4

EPOCH          = 2026-02-12T08:00:37.129248
MEAN_MOTION    = 13.79360636
ECCENTRICITY   = .0004223
INCLINATION    = 50.0011
RA_OF_ASC_NODE = 89.1466
ARG_OF_PERICENTER = 185.3162
MEAN_ANOMALY   = 174.7688

EPHEMERIS_TYPE = 0
CLASSIFICATION_TYPE = U
NORAD_CAT_ID   = 67530
ELEMENT_SET_NO = 999
REV_AT_EPOCH   = 334
BSTAR          = .16974E-3
MEAN_MOTION_DOT = .33E-6
MEAN_MOTION_DDOT = 0

CCSDS_OMM_VERS = 2.0
CREATION_DATE  = 
ORIGINATOR     = 

OBJECT_NAME    = CZ-12 R/B
OBJECT_ID      = 2026-013K
CENTER_NAME    = EARTH
REF_FRAME      = TEME
TIME_SYSTEM    = UTC
MEAN_ELEMENT_THEORY = SGP/SGP4

EPOCH          = 2026-02-13T07:25:00.756192
MEAN_MOTION    = 14.14458025
ECCENTRICITY   = .0069052
INCLINATION    = 49.9940
RA_OF_ASC_NODE = 81.6091
ARG_OF_PERICENTER = 213.8608
MEAN_ANOMALY   = 145.7882

EPHEMERIS_TYPE = 0
CLASSIFICATION_TYPE = U
NORAD_CAT_ID   = 67531
ELEMENT_SET_NO = 999
REV_AT_EPOCH   = 353
BSTAR          = .24917E-4
MEAN_MOTION_DOT = -.106E-5
MEAN_MOTION_DDOT = 0

CCSDS_OMM_VERS = 2.0
CREATION_DATE  = 
ORIGINATOR     = 

OBJECT_NAME    = STARLINK-36587
OBJECT_ID      = 2026-014A
CENTER_NAME    = EARTH
REF_FRAME      = TEME
TIME_SYSTEM    = UTC
MEAN_ELEMENT_THEORY = SGP/SGP4

EPOCH          = 2026-02-15T04:53:43.568736
MEAN_MOTION    = 15.80933000
ECCENTRICITY   = .0001906
INCLINATION    = 97.2831
RA_OF_ASC_NODE = 290.0273
ARG_OF_PERICENTER = 125.3375
MEAN_ANOMALY   = 234.8071

EPHEMERIS_TYPE = 0
CLASSIFICATION_TYPE = U
NORAD_CAT_ID   = 67532
ELEMENT_SET_NO = 999
REV_AT_EPOCH   = 503
BSTAR          = .18378E-2
MEAN_MOTION_DOT = .369165E-2
MEAN_MOTION_DDOT = 0

CCSDS_OMM_VERS = 2.0
CREATION_DATE  = 
ORIGINATOR     = 

OBJECT_NAME    = STARLINK-36417
OBJECT_ID      = 2026-014B
CENTER_NAME    = EARTH
REF_FRAME      = TEME
TIME_SYSTEM    = UTC
MEAN_ELEMENT_THEORY = SGP/SGP4

EPOCH          = 2026-02-15T04:10:57.457632
MEAN_MOTION    = 15.75205655
ECCENTRICITY   = .00014996
INCLINATION    = 97.2845
RA_OF_ASC_NODE = 289.9136
ARG_OF_PERICENTER = 57.6694
MEAN_ANOMALY   = 302.4716

EPHEMERIS_TYPE = 0
CLASSIFICATION_TYPE = U
NORAD_CAT_ID   = 67533
ELEMENT_SET_NO = 999
REV_AT_EPOCH   = 502
BSTAR          = .85591654E-3
MEAN_MOTION_DOT = .129578E-2
MEAN_MOTION_DDOT = 0

CCSDS_OMM_VERS = 2.0
CREATION_DATE  = 
ORIGINATOR     = 

OBJECT_NAME    = STARLINK-36576
OBJECT_ID      = 2026-014C
CENTER_NAME    = EARTH
REF_FRAME      = TEME
TIME_SYSTEM    = UTC
MEAN_ELEMENT_THEORY = SGP/SGP4

EPOCH          = 2026-02-15T14:00:01.999872
MEAN_MOTION    = 15.77277067
ECCENTRICITY   = .0001617
INCLINATION    = 97.2840
RA_OF_ASC_NODE = 290.4321
ARG_OF_PERICENTER = 91.2107
MEAN_ANOMALY   = 269.1938

EPHEMERIS_TYPE = 0
CLASSIFICATION_TYPE = U
NORAD_CAT_ID   = 67534
ELEMENT_SET_NO = 999
REV_AT_EPOCH   = 513
BSTAR          = -.1237701E-1
MEAN_MOTION_DOT = -.1780772E-1
MEAN_MOTION_DDOT = 0

CCSDS_OMM_VERS = 2.0
CREATION_DATE  = 
ORIGINATOR     = 

OBJECT_NAME    = STARLINK-36574
OBJECT_ID      = 2026-014D
CENTER_NAME    = EARTH
REF_FRAME      = TEME
TIME_SYSTEM    = UTC
MEAN_ELEMENT_THEORY = SGP/SGP4

EPOCH          = 2026-02-15T04:49:52.378752
MEAN_MOTION    = 15.80943532
ECCENTRICITY   = .0000715
INCLINATION    = 97.2834
RA_OF_ASC_NODE = 290.0315
ARG_OF_PERICENTER = 138.3448
MEAN_ANOMALY   = 221.7875

EPHEMERIS_TYPE = 0
CLASSIFICATION_TYPE = U
NORAD_CAT_ID   = 67535
ELEMENT_SET_NO = 999
REV_AT_EPOCH   = 503
BSTAR          = .17149E-2
MEAN_MOTION_DOT = .343636E-2
MEAN_MOTION_DDOT = 0

CCSDS_OMM_VERS = 2.0
CREATION_DATE  = 
ORIGINATOR     = 

OBJECT_NAME    = STARLINK-36572
OBJECT_ID      = 2026-014E
CENTER_NAME    = EARTH
REF_FRAME      = TEME
TIME_SYSTEM    = UTC
MEAN_ELEMENT_THEORY = SGP/SGP4

EPOCH          = 2026-02-15T05:22:37.219296
MEAN_MOTION    = 15.75230327
ECCENTRICITY   = .0002422
INCLINATION    = 97.2845
RA_OF_ASC_NODE = 289.9990
ARG_OF_PERICENTER = 58.6362
MEAN_ANOMALY   = 301.5140

EPHEMERIS_TYPE = 0
CLASSIFICATION_TYPE = U
NORAD_CAT_ID   = 67536
ELEMENT_SET_NO = 999
REV_AT_EPOCH   = 503
BSTAR          = .12572E-2
MEAN_MOTION_DOT = .19201E-2
MEAN_MOTION_DDOT = 0

CCSDS_OMM_VERS = 2.0
CREATION_DATE  = 
ORIGINATOR     = 

OBJECT_NAME    = STARLINK-36561
OBJECT_ID      = 2026-014F
CENTER_NAME    = EARTH
REF_FRAME      = TEME
TIME_SYSTEM    = UTC
MEAN_ELEMENT_THEORY = SGP/SGP4

EPOCH          = 2026-02-15T05:31:13.924128
MEAN_MOTION    = 15.75212378
ECCENTRICITY   = .0001591
INCLINATION    = 97.2850
RA_OF_ASC_NODE = 289.9891
ARG_OF_PERICENTER = 97.8309
MEAN_ANOMALY   = 262.3136

EPHEMERIS_TYPE = 0
CLASSIFICATION_TYPE = U
NORAD_CAT_ID   = 67537
ELEMENT_SET_NO = 999
REV_AT_EPOCH   = 503
BSTAR          = .81411E-3
MEAN_MOTION_DOT = .123187E-2
MEAN_MOTION_DDOT = 0

CCSDS_OMM_VERS = 2.0
CREATION_DATE  = 
ORIGINATOR     = 

OBJECT_NAME    = STARLINK-36397
OBJECT_ID      = 2026-014G
CENTER_NAME    = EARTH
REF_FRAME      = TEME
TIME_SYSTEM    = UTC
MEAN_ELEMENT_THEORY = SGP/SGP4

EPOCH          = 2026-02-15T04:05:22.042464
MEAN_MOTION    = 15.75243964
ECCENTRICITY   = .00016594
INCLINATION    = 97.2849
RA_OF_ASC_NODE = 289.9176
ARG_OF_PERICENTER = 103.7372
MEAN_ANOMALY   = 256.4078

EPHEMERIS_TYPE = 0
CLASSIFICATION_TYPE = U
NORAD_CAT_ID   = 67538
ELEMENT_SET_NO = 999
REV_AT_EPOCH   = 502
BSTAR          = .14666353E-2
MEAN_MOTION_DOT = .225016E-2
MEAN_MOTION_DDOT = 0

CCSDS_OMM_VERS = 2.0
CREATION_DATE  = 
ORIGINATOR     = 

OBJECT_NAME    = STARLINK-36573
OBJECT_ID      = 2026-014H
CENTER_NAME    = EARTH
REF_FRAME      = TEME
TIME_SYSTEM    = UTC
MEAN_ELEMENT_THEORY = SGP/SGP4

EPOCH          = 2026-02-15T04:43:58.250208
MEAN_MOTION    = 15.80877827
ECCENTRICITY   = .0001431
INCLINATION    = 97.2835
RA_OF_ASC_NODE = 290.0352
ARG_OF_PERICENTER = 100.6520
MEAN_ANOMALY   = 259.4910

EPHEMERIS_TYPE = 0
CLASSIFICATION_TYPE = U
NORAD_CAT_ID   = 67539
ELEMENT_SET_NO = 999
REV_AT_EPOCH   = 503
BSTAR          = .10982E-2
MEAN_MOTION_DOT = .216119E-2
MEAN_MOTION_DDOT = 0

CCSDS_OMM_VERS = 2.0
CREATION_DATE  = 
ORIGINATOR     = 

OBJECT_NAME    = STARLINK-36585
OBJECT_ID      = 2026-014J
CENTER_NAME    = EARTH
REF_FRAME      = TEME
TIME_SYSTEM    = UTC
MEAN_ELEMENT_THEORY = SGP/SGP4

EPOCH          = 2026-02-15T14:34:01.094304
MEAN_MOTION    = 15.75395385
ECCENTRICITY   = .00023262
INCLINATION    = 97.2851
RA_OF_ASC_NODE = 290.3931
ARG_OF_PERICENTER = 121.7225
MEAN_ANOMALY   = 238.4267

EPHEMERIS_TYPE = 0
CLASSIFICATION_TYPE = U
NORAD_CAT_ID   = 67540
ELEMENT_SET_NO = 999
REV_AT_EPOCH   = 509
BSTAR          = .27030518E-2
MEAN_MOTION_DOT = .427685E-2
MEAN_MOTION_DDOT = 0

